NORAD_CAT_ID,OBJECT_NAME,OBJECT_TYPE,EPOCH,MEAN_MOTION,ECCENTRICITY,INCLINATION,RA_OF_ASC_NODE,ARG_OF_PERICENTER,MEAN_ANOMALY,BSTAR,MEAN_MOTION_DOT,MEAN_MOTION_DDOT,TLE_LINE0,TLE_LINE1,TLE_LINE2,SEMIMAJOR_AXIS,PERIOD,APOGEE,PERIGEE,DECAYED
51130.0,STARLINK-3395,PAYLOAD,2024-01-28 13:53:50,15.08835449,0.0001519,53.2175,160.7694,110.0039,250.1117,-1.9993e-05,-6.06e-06,0.0,0 STARLINK-3395,1 51130U 22005AC  24028.57905295 -.00000606  00000-0 -19993-4 0  9996,2 51130  53.2175 160.7694 0001519 110.0039 250.1117 15.08835449112310,6917.894,95.438,540.81,538.708,0.0
51130.0,STARLINK-3395,PAYLOAD,2024-01-28 18:39:59,15.0883708,0.000141,53.2169,159.8752,105.5599,254.5548,-1.2887e-06,-3.08e-06,0.0,0 STARLINK-3395,1 51130U 22005AC  24028.77777158 -.00000308  00000-0 -12887-5 0  9998,2 51130  53.2169 159.8752 0001410 105.5599 254.5548 15.08837080113463,6917.889,95.438,540.73,538.779,0.0
51130.0,STARLINK-3395,PAYLOAD,2024-01-29 12:09:13,15.08840235,0.0001303,53.2171,156.6048,92.1064,268.0077,5.8913e-05,6.5e-06,0.0,0 STARLINK-3395,1 51130U 22005AC  24029.50640919  .00000650  00000-0  58913-4 0  9991,2 51130  53.2171 156.6048 0001303  92.1064 268.0077 15.08840235112459,6917.88,95.438,540.646,538.843,0.0
51130.0,STARLINK-3395,PAYLOAD,2024-01-30 12:00:01,15.08834512,0.0001228,53.2172,152.1444,81.6659,278.4472,1.381e-05,-6.8e-07,0.0,0 STARLINK-3395,1 51130U 22005AC  24030.50001757 -.00000068  00000-0  13810-4 0  9995,2 51130  53.2172 152.1444 0001228  81.6659 278.4472 15.08834512113726,6917.897,95.438,540.612,538.913,0.0
51130.0,STARLINK-3395,PAYLOAD,2024-01-30 13:35:24,15.08835543,0.0001235,53.217,151.847,82.4652,277.648,2.4269e-05,9.8e-07,0.0,0 STARLINK-3395,1 51130U 22005AC  24030.56625673  .00000098  00000-0  24269-4 0  9992,2 51130  53.2170 151.8470 0001235  82.4652 277.6480 15.08835543112611,6917.894,95.438,540.613,538.905,0.0
51130.0,STARLINK-3395,PAYLOAD,2024-01-31 11:50:48,15.08837267,0.0001354,53.2178,147.6908,99.4189,260.6956,1.8015e-05,-1e-08,0.0,0 STARLINK-3395,1 51130U 22005AC  24031.49361790 -.00000001  00000-0  18015-4 0  9999,2 51130  53.2178 147.6908 0001354  99.4189 260.6956 15.08837267112753,6917.889,95.438,540.69,538.817,0.0
51130.0,STARLINK-3395,PAYLOAD,2024-01-31 16:36:57,15.08842585,0.0001351,53.2171,146.7915,87.4283,272.6864,4.8726e-05,4.88e-06,0.0,0 STARLINK-3395,1 51130U 22005AC  24031.69233348  .00000488  00000-0  48726-4 0  9998,2 51130  53.2171 146.7915 0001351  87.4283 272.6864 15.08842585113901,6917.872,95.437,540.672,538.803,0.0
51130.0,STARLINK-3395,PAYLOAD,2024-02-01 11:41:35,15.08834082,0.000151,53.2178,143.2156,95.1729,264.9436,2.2141e-05,6.4e-07,0.0,0 STARLINK-3395,1 51130U 22005AC  24032.48722047  .00000064  00000-0  22141-4 0  9998,2 51130  53.2178 143.2156 0001510  95.1729 264.9436 15.08834082114021,6917.898,95.438,540.808,538.719,0.0
51130.0,STARLINK-3395,PAYLOAD,2024-02-02 11:32:22,15.08845429,0.0001995,53.2195,138.7554,82.5372,277.5847,8.6569e-05,1.09e-05,0.0,0 STARLINK-3395,1 51130U 22005AC  24033.48081197  .00001090  00000-0  86569-4 0  9997,2 51130  53.2195 138.7554 0001995  82.5372 277.5847 15.08845429114171,6917.864,95.437,541.109,538.349,0.0
51130.0,STARLINK-3395,PAYLOAD,2024-02-02 14:43:08,15.088185,0.000177,53.2178,138.1676,88.144,271.9755,0.00053733,8.269e-05,0.0,0 STARLINK-3395,1 51130U 22005AC  24033.61329145  .00008269  00000-0  53733-3 0  9991,2 51130  53.2178 138.1676 0001770  88.1440 271.9755 15.08818500113074,6917.946,95.439,541.036,538.587,0.0
51130.0,STARLINK-3395,PAYLOAD,2024-02-03 11:23:08,15.08847627,0.0001434,53.2188,134.3056,101.8137,258.3016,2.5367e-05,1.16e-06,0.0,0 STARLINK-3395,1 51130U 22005AC  24034.47440786  .00000116  00000-0  25367-4 0  9997,2 51130  53.2188 134.3056 0001434 101.8137 258.3016 15.08847627114328,6917.857,95.437,540.714,538.73,0.0
51130.0,STARLINK-3395,PAYLOAD,2024-02-03 12:58:32,15.08811828,0.0002019,53.218,134.0089,62.429,297.6907,0.00047318,7.245e-05,0.0,0 STARLINK-3395,1 51130U 22005AC  24034.54065493  .00007245  00000-0  47318-3 0  9992,2 51130  53.2180 134.0089 0002019  62.4290 297.6907 15.08811828113211,6917.967,95.439,541.228,538.435,0.0
51130.0,STARLINK-3395,PAYLOAD,2024-02-04 11:13:56,15.08844209,0.000179,53.2186,129.8429,114.9582,245.1596,-0.00015409,-2.74e-05,0.0,0 STARLINK-3395,1 51130U 22005AC  24035.46801450 -.00002740  00000-0 -15409-3 0  9998,2 51130  53.2186 129.8429 0001790 114.9582 245.1596 15.08844209114479,6917.868,95.437,540.971,538.494,0.0
51130.0,STARLINK-3395,PAYLOAD,2024-02-04 12:49:19,15.08839769,0.0001512,53.2181,129.549,88.8824,271.2341,-9.5006e-05,-1.8e-05,0.0,0 STARLINK-3395,1 51130U 22005AC  24035.53425717 -.00001800  00000-0 -95006-4 0  9992,2 51130  53.2181 129.5490 0001512  88.8824 271.2341 15.08839769113369,6917.881,95.438,540.792,538.7,0.0
51130.0,STARLINK-3395,PAYLOAD,2024-02-05 12:40:06,15.08840531,0.0001449,53.2178,125.089,94.0664,266.0494,-3.1286e-05,-7.86e-06,0.0,0 STARLINK-3395,1 51130U 22005AC  24036.52785570 -.00000786  00000-0 -31286-4 0  9990,2 51130  53.2178 125.0890 0001449  94.0664 266.0494 15.08840531114631,6917.879,95.438,540.746,538.741,0.0
51130.0,STARLINK-3395,PAYLOAD,2024-02-06 12:30:53,15.08839746,0.0001336,53.2181,120.6285,97.7331,262.3813,0.00010762,1.425e-05,0.0,0 STARLINK-3395,1 51130U 22005AC  24037.52145568  .00001425  00000-0  10762-3 0  9992,2 51130  53.2181 120.6285 0001336  97.7331 262.3813 15.08839746113662,6917.881,95.438,540.67,538.822,0.0
51130.0,STARLINK-3395,PAYLOAD,2024-02-07 12:21:41,15.08839989,0.0001353,53.2176,116.1673,93.198,266.9167,2.0874e-05,4.4e-07,0.0,0 STARLINK-3395,1 51130U 22005AC  24038.51506107  .00000044  00000-0  20874-4 0  9994,2 51130  53.2176 116.1673 0001353  93.1980 266.9167 15.08839989114938,6917.88,95.438,540.681,538.809,0.0
51130.0,STARLINK-3395,PAYLOAD,2024-02-07 21:54:00,15.08833686,0.0001197,53.2163,114.3832,86.6131,273.4998,2.7635e-05,1.52e-06,0.0,0 STARLINK-3395,1 51130U 22005AC  24038.91250608  .00000152  00000-0  27635-4 0  9992,2 51130  53.2163 114.3832 0001197  86.6131 273.4998 15.08833686113877,6917.9,95.438,540.593,538.937,0.0
51130.0,STARLINK-3395,PAYLOAD,2024-02-08 04:15:33,15.08834211,0.0001445,53.2175,113.1955,107.2121,252.903,-3.927e-05,-9.13e-06,0.0,0 STARLINK-3395,1 51130U 22005AC  24039.17746945 -.00000913  00000-0 -39270-4 0  9990,2 51130  53.2175 113.1955 0001445 107.2121 252.9030 15.08834211115032,6917.898,95.438,540.763,538.763,0.0
51130.0,STARLINK-3395,PAYLOAD,2024-02-08 12:12:29,15.08834659,0.0001676,53.218,111.706,101.4125,258.7055,-4.4529e-05,-9.97e-06,0.0,0 STARLINK-3395,1 51130U 22005AC  24039.50867169 -.00000997  00000-0 -44529-4 0  9994,2 51130  53.2180 111.7060 0001676 101.4125 258.7055 15.08834659113962,6917.897,95.438,540.921,538.602,0.0
51130.0,STARLINK-3395,PAYLOAD,2024-02-09 04:06:19,15.08837566,0.0001899,53.2187,108.7322,101.3058,258.8147,0.00012039,1.628e-05,0.0,0 STARLINK-3395,1 51130U 22005AC  24040.17106433  .00001628  00000-0  12039-3 0  9999,2 51130  53.2187 108.7322 0001899 101.3058 258.8147 15.08837566115186,6917.888,95.438,541.067,538.439,0.0
51130.0,STARLINK-3395,PAYLOAD,2024-02-09 12:03:15,15.08848921,0.0001667,53.2176,107.2455,87.4526,272.6657,9.711e-05,1.258e-05,0.0,0 STARLINK-3395,1 51130U 22005AC  24040.50225905  .00001258  00000-0  97110-4 0  9995,2 51130  53.2176 107.2455 0001667  87.4526 272.6657 15.08848921115235,6917.853,95.437,540.871,538.565,0.0
51130.0,STARLINK-3395,PAYLOAD,2024-02-10 03:57:07,15.0884399,0.0002126,53.2176,104.276,81.1664,278.9569,2.8195e-05,1.61e-06,0.0,0 STARLINK-3395,1 51130U 22005AC  24041.16466576  .00000161  00000-0  28195-4 0  9998,2 51130  53.2176 104.2760 0002126  81.1664 278.9569 15.08843990115339,6917.868,95.437,541.204,538.262,0.0
51130.0,STARLINK-3395,PAYLOAD,2024-02-10 13:29:25,15.08844654,0.0001594,53.2169,102.4857,97.1239,262.9935,8.9119e-05,1.131e-05,0.0,0 STARLINK-3395,1 51130U 22005AC  24041.56210268  .00001131  00000-0  89119-4 0  9998,2 51130  53.2169 102.4857 0001594  97.1239 262.9935 15.08844654114271,6917.866,95.437,540.834,538.628,0.0
51130.0,STARLINK-3395,PAYLOAD,2024-02-11 03:47:54,15.08845171,0.0001803,53.2169,99.807,98.1264,261.9933,-7.7049e-05,-1.514e-05,0.0,0 STARLINK-3395,1 51130U 22005AC  24042.15826800 -.00001514  00000-0 -77049-4 0  9995,2 51130  53.2169  99.8070 0001803  98.1264 261.9933 15.08845171115485,6917.865,95.437,540.977,538.482,0.0
51130.0,STARLINK-3395,PAYLOAD,2024-02-11 10:09:26,15.08845612,0.0001759,53.2174,98.6207,85.207,274.9123,-2.9963e-05,-7.65e-06,0.0,0 STARLINK-3395,1 51130U 22005AC  24042.42322598 -.00000765  00000-0 -29963-4 0  9999,2 51130  53.2174  98.6207 0001759  85.2070 274.9123 15.08845612114408,6917.863,95.437,540.945,538.511,0.0
51130.0,STARLINK-3395,PAYLOAD,2024-02-12 10:00:12,15.08852802,0.0001601,53.2173,94.1599,95.0234,265.0941,0.00012653,1.727e-05,0.0,0 STARLINK-3395,1 51130U 22005AC  24043.41681354  .00001727  00000-0  12653-3 0  9991,2 51130  53.2173  94.1599 0001601  95.0234 265.0941 15.08852802115677,6917.841,95.437,540.814,538.599,0.0
51130.0,STARLINK-3395,PAYLOAD,2024-02-12 13:10:58,15.08856407,0.0001624,53.2172,93.5631,108.7423,251.3746,0.00014862,2.079e-05,0.0,0 STARLINK-3395,1 51130U 22005AC  24043.54928922  .00002079  00000-0  14862-3 0  9995,2 51130  53.2172  93.5631 0001624 108.7423 251.3746 15.08856407114577,6917.83,95.437,540.819,538.572,0.0
51130.0,STARLINK-3395,PAYLOAD,2024-02-13 03:29:29,15.08819257,0.0001263,53.2188,90.8884,105.9083,254.2049,-0.00015329,-2.725e-05,0.0,0 STARLINK-3395,1 51130U 22005AC  24044.14548436 -.00002725  00000-0 -15329-3 0  9999,2 51130  53.2188  90.8884 0001263 105.9083 254.2049 15.08819257115788,6917.944,95.439,540.683,538.935,0.0
51130.0,STARLINK-3395,PAYLOAD,2024-02-13 09:51:02,15.08818669,0.0001333,53.2182,89.7004,95.0779,265.0365,-0.00013269,-2.398e-05,0.0,0 STARLINK-3395,1 51130U 22005AC  24044.41044875 -.00002398  00000-0 -13269-3 0  9994,2 51130  53.2182  89.7004 0001333  95.0779 265.0365 15.08818669114700,6917.946,95.439,540.733,538.888,0.0
